[{"OBJECT_NAME":"OBJECT Y","OBJECT_ID":"2023-085Y","EPOCH":"2026-03-09T22:38:54.992256","MEAN_MOTION":15.32500153,"ECCENTRICITY":0.00063298,"INCLINATION":97.4849,"RA_OF_ASC_NODE":180.8653,"ARG_OF_PERICENTER":67.4431,"MEAN_ANOMALY":292.748,"EPHEMERIS_TYPE":0,"CLASSIFICATION_TYPE":"U","NORAD_CAT_ID":57026,"ELEMENT_SET_NO":999,"REV_AT_EPOCH":15160,"BSTAR":0.00065512761,"MEAN_MOTION_DOT":0.00020524,"MEAN_MOTION_DDOT":0},{"OBJECT_NAME":"STARLINK-34403","OBJECT_ID":"2025-130F","EPOCH":"2026-03-09T11:25:56.227008","MEAN_MOTION":15.30206311,"ECCENTRICITY":8.465e-5,"INCLINATION":53.1588,"RA_OF_ASC_NODE":89.2962,"ARG_OF_PERICENTER":88.1397,"MEAN_ANOMALY":271.97,"EPHEMERIS_TYPE":0,"CLASSIFICATION_TYPE":"U","NORAD_CAT_ID":64443,"ELEMENT_SET_NO":999,"REV_AT_EPOCH":4067,"BSTAR":0.00078102451,"MEAN_MOTION_DOT":0.00022848,"MEAN_MOTION_DDOT":0}]
